MALLIGYONG-1            
1 58400U 23179A   24141.56935363  .00011997  00000+0  51769-3 0  9998
2 58400  97.4081  28.8463 0009170  11.4890 348.6554 15.22640148 27523
